NORAD_CAT_ID,OBJECT_NAME,OBJECT_TYPE,EPOCH,MEAN_MOTION,ECCENTRICITY,INCLINATION,RA_OF_ASC_NODE,ARG_OF_PERICENTER,MEAN_ANOMALY,BSTAR,MEAN_MOTION_DOT,MEAN_MOTION_DDOT,TLE_LINE0,TLE_LINE1,TLE_LINE2,SEMIMAJOR_AXIS,PERIOD,APOGEE,PERIGEE,DECAYED
49178.0,STARLINK-3086,PAYLOAD,2022-07-10 01:58:14,14.98311633,0.0002988,69.9997,69.5534,256.7367,103.3459,-0.00023713,-2.92e-05,0.0,0 STARLINK-3086,1 49178U 21082BA  22191.08211305 -.00002920  00000-0 -23713-3 0  9991,2 49178  69.9997  69.5534 0002988 256.7367 103.3459 14.98311633 46627,6950.25,96.108,574.191,570.038,0.0
49178.0,STARLINK-3086,PAYLOAD,2022-07-10 16:23:26,14.98319599,0.0002871,70.0003,68.0384,258.1109,101.9728,-0.0001219,-1.547e-05,0.0,0 STARLINK-3086,1 49178U 21082BA  22191.68295125 -.00001547  00000-0 -12190-3 0  9990,2 49178  70.0003  68.0384 0002871 258.1109 101.9728 14.98319599 46718,6950.225,96.108,574.085,570.095,0.0
49178.0,STARLINK-3086,PAYLOAD,2022-07-10 17:59:35,14.98316897,0.0002983,70.0001,67.8701,258.2835,101.7989,-0.00014592,-1.833e-05,0.0,0 STARLINK-3086,1 49178U 21082BA  22191.74971388 -.00001833  00000-0 -14592-3 0  9995,2 49178  70.0001  67.8701 0002983 258.2835 101.7989 14.98316897 46723,6950.233,96.108,574.172,570.025,0.0
49178.0,STARLINK-3086,PAYLOAD,2022-07-11 08:24:47,14.98322117,0.0002973,70.0003,66.3554,259.5151,100.5673,-7.2812e-05,-9.61e-06,0.0,0 STARLINK-3086,1 49178U 21082BA  22192.35055357 -.00000961  00000-0 -72812-4 0  9993,2 49178  70.0003  66.3554 0002973 259.5151 100.5673 14.98322117 46818,6950.217,96.108,574.149,570.016,0.0
49178.0,STARLINK-3086,PAYLOAD,2022-07-11 21:13:52,14.98309888,0.0003435,70.0002,65.0088,257.624,102.4534,0.00021877,2.517e-05,0.0,0 STARLINK-3086,1 49178U 21082BA  22192.88463877  .00002517  00000-0  21877-3 0  9992,2 49178  70.0002  65.0088 0003435 257.6240 102.4534 14.98309888 46892,6950.255,96.108,574.507,569.7330000000002,0.0
49178.0,STARLINK-3086,PAYLOAD,2022-07-12 02:02:14,14.98395304,0.0003486,70.0001,64.5037,256.4164,103.6607,-0.001236,-0.00014835,0.0,0 STARLINK-3086,1 49178U 21082BA  22193.08489105 -.00014835  00000-0 -12360-2 0  9991,2 49178  70.0001  64.5037 0003486 256.4164 103.6607 14.98395304 46923,6949.991,96.103,574.279,569.433,0.0
49178.0,STARLINK-3086,PAYLOAD,2022-07-12 08:26:49,14.98318006,0.0003026,70.0001,63.8307,259.3602,100.7216,0.00033238,3.874e-05,0.0,0 STARLINK-3086,1 49178U 21082BA  22193.35195803  .00003874  00000-0  33238-3 0  9997,2 49178  70.0001  63.8307 0003026 259.3602 100.7216 14.98318006 46966,6950.23,96.108,574.198,569.992,0.0
49178.0,STARLINK-3086,PAYLOAD,2022-07-12 19:39:45,14.98330372,0.0003048,70.0001,62.6523,258.1229,101.9588,0.00026948,3.124e-05,0.0,0 STARLINK-3086,1 49178U 21082BA  22193.81927503  .00003124  00000-0  26948-3 0  9996,2 49178  70.0001  62.6523 0003048 258.1229 101.9588 14.98330372 47033,6950.191999999999,96.107,574.175,569.938,0.0
49178.0,STARLINK-3086,PAYLOAD,2022-07-12 21:15:53,14.98332505,0.0003029,70.0002,62.484,259.7022,100.3795,0.00029281,3.403e-05,0.0,0 STARLINK-3086,1 49178U 21082BA  22193.88603397  .00003403  00000-0  29281-3 0  9998,2 49178  70.0002  62.4840 0003029 259.7022 100.3795 14.98332505 47045,6950.185,96.107,574.155,569.945,0.0
49178.0,STARLINK-3086,PAYLOAD,2022-07-13 08:28:49,14.98342038,0.0003053,70.0015,61.306,257.889,102.1927,0.00042057,4.93e-05,0.0,0 STARLINK-3086,1 49178U 21082BA  22194.35335194  .00004930  00000-0  42057-3 0  9990,2 49178  70.0015  61.3060 0003053 257.8890 102.1927 14.98342038 47117,6950.156,96.106,574.143,569.899,0.0
49178.0,STARLINK-3086,PAYLOAD,2022-07-13 19:41:45,14.98348515,0.000302,70.0015,60.1276,256.8763,103.2059,0.00042776,5.017e-05,0.0,0 STARLINK-3086,1 49178U 21082BA  22194.82066604  .00005017  00000-0  42776-3 0  9994,2 49178  70.0015  60.1276 0003020 256.8763 103.2059 14.98348515 47186,6950.136,96.106,574.1,569.9019999999998,0.0
49178.0,STARLINK-3086,PAYLOAD,2022-07-14 00:30:09,14.98340157,0.0003132,70.0016,59.6231,256.7123,103.3687,0.00014792,1.673e-05,0.0,0 STARLINK-3086,1 49178U 21082BA  22195.02094885  .00001673  00000-0  14792-3 0  9990,2 49178  70.0016  59.6231 0003132 256.7123 103.3687 14.98340157 47210,6950.161,96.106,574.203,569.85,0.0
49178.0,STARLINK-3086,PAYLOAD,2022-07-14 08:30:50,14.98339818,0.0003137,70.0014,58.7813,257.0132,103.0677,7.3272e-05,7.82e-06,0.0,0 STARLINK-3086,1 49178U 21082BA  22195.35474654  .00000782  00000-0  73272-4 0  9991,2 49178  70.0014  58.7813 0003137 257.0132 103.0677 14.98339818 47266,6950.163000000001,96.106,574.2080000000002,569.847,0.0
49178.0,STARLINK-3086,PAYLOAD,2022-07-14 21:19:54,14.98339294,0.0003114,70.0013,57.4349,257.0723,103.0088,2.2449e-05,1.75e-06,0.0,0 STARLINK-3086,1 49178U 21082BA  22195.88882414  .00000175  00000-0  22449-4 0  9992,2 49178  70.0013  57.4349 0003114 257.0723 103.0088 14.98339294 47349,6950.1640000000025,96.106,574.193,569.865,0.0
49178.0,STARLINK-3086,PAYLOAD,2022-07-15 00:32:10,14.98332953,0.0003066,70.0013,57.0974,257.8631,102.2184,-0.00010081,-1.296e-05,0.0,0 STARLINK-3086,1 49178U 21082BA  22196.02234718 -.00001296  00000-0 -10081-3 0  9992,2 49178  70.0013  57.0974 0003066 257.8631 102.2184 14.98332953 47366,6950.184,96.107,574.18,569.918,0.0
49178.0,STARLINK-3086,PAYLOAD,2022-07-15 08:32:51,14.98331698,0.0003061,70.0012,56.2561,257.3785,102.7032,-0.00012953,-1.638e-05,0.0,0 STARLINK-3086,1 49178U 21082BA  22196.35614707 -.00001638  00000-0 -12953-3 0  9998,2 49178  70.0012  56.2561 0003061 257.3785 102.7032 14.98331698 47416,6950.188,96.107,574.18,569.925,0.0
49178.0,STARLINK-3086,PAYLOAD,2022-07-15 21:21:55,14.9833344,0.000309,70.0001,54.9095,256.4199,103.6616,1.0342e-05,3e-07,0.0,0 STARLINK-3086,1 49178U 21082BA  22196.89022778  .00000030  00000-0  10342-4 0  9992,2 49178  70.0001  54.9095 0003090 256.4199 103.6616 14.98333440 47495,6950.182,96.107,574.195,569.9,0.0
49178.0,STARLINK-3086,PAYLOAD,2022-07-16 00:34:11,14.98335532,0.0003093,70.0001,54.573,256.5917,103.4897,3.059e-05,2.72e-06,0.0,0 STARLINK-3086,1 49178U 21082BA  22197.02374562  .00000272  00000-0  30590-4 0  9994,2 49178  70.0001  54.5730 0003093 256.5917 103.4897 14.98335532 47515,6950.176,96.107,574.19,569.891,0.0
49178.0,STARLINK-3086,PAYLOAD,2022-07-16 13:23:15,14.98337015,0.0002995,70.0004,53.2262,256.5099,103.5727,9.9552e-05,1.095e-05,0.0,0 STARLINK-3086,1 49178U 21082BA  22197.55782315  .00001095  00000-0  99552-4 0  9998,2 49178  70.0004  53.2262 0002995 256.5099 103.5727 14.98337015 47594,6950.170999999999,96.107,574.118,569.955,0.0
49178.0,STARLINK-3086,PAYLOAD,2022-07-16 21:23:55,14.98344521,0.0002993,70.0002,52.3846,256.8109,103.2716,4.8738e-05,4.89e-06,0.0,0 STARLINK-3086,1 49178U 21082BA  22197.89161805  .00000489  00000-0  48738-4 0  9996,2 49178  70.0002  52.3846 0002993 256.8109 103.2716 14.98344521 47644,6950.148,96.106,574.0930000000002,569.933,0.0
49178.0,STARLINK-3086,PAYLOAD,2022-07-17 00:36:14,14.98274515,0.0002514,70.0002,52.0479,258.0361,102.0516,0.0015447,0.0001836,0.0,0 STARLINK-3086,1 49178U 21082BA  22198.02516264  .00018360  00000-0  15447-2 0  9991,2 49178  70.0002  52.0479 0002514 258.0361 102.0516 14.98274515 47668,6950.364000000001,96.111,573.977,570.482,0.0
49178.0,STARLINK-3086,PAYLOAD,2022-07-17 07:00:44,14.98340569,0.0002927,70.0004,51.3745,256.3691,103.7142,0.00029898,3.477e-05,0.0,0 STARLINK-3086,1 49178U 21082BA  22198.29217609  .00003477  00000-0  29898-3 0  9990,2 49178  70.0004  51.3745 0002927 256.3691 103.7142 14.98340569 47704,6950.16,96.106,574.06,569.991,0.0
49178.0,STARLINK-3086,PAYLOAD,2022-07-17 18:13:41,14.98331118,0.000281,70.0006,50.1966,255.9088,104.1759,9.5719e-05,1.049e-05,0.0,0 STARLINK-3086,1 49178U 21082BA  22198.75950467  .00001049  00000-0  95719-4 0  9996,2 49178  70.0006  50.1966 0002810 255.9088 104.1759 14.98331118 47770,6950.189,96.107,574.007,570.101,0.0
49178.0,STARLINK-3086,PAYLOAD,2022-07-18 07:02:45,14.98335384,0.000282,70.0006,48.85,255.8428,104.2418,9.9349e-05,1.093e-05,0.0,0 STARLINK-3086,1 49178U 21082BA  22199.29358063  .00001093  00000-0  99349-4 0  9992,2 49178  70.0006  48.8500 0002820 255.8428 104.2418 14.98335384 47857,6950.176,96.107,574.001,570.081,0.0
49178.0,STARLINK-3086,PAYLOAD,2022-07-18 21:27:57,14.98337639,0.0002969,70.0006,47.335,255.3828,104.7002,3.4309e-05,3.16e-06,0.0,0 STARLINK-3086,1 49178U 21082BA  22199.89441676  .00000316  00000-0  34309-4 0  9993,2 49178  70.0006  47.3350 0002969 255.3828 104.7002 14.98337639 47946,6950.169,96.107,574.0980000000002,569.971,0.0
49178.0,STARLINK-3086,PAYLOAD,2022-07-19 00:40:13,14.98334427,0.0003041,70.0002,46.9979,255.9616,104.1205,-1.267e-05,-2.44e-06,0.0,0 STARLINK-3086,1 49178U 21082BA  22200.02793924 -.00000244  00000-0 -12670-4 0  9996,2 49178  70.0002  46.9979 0003041 255.9616 104.1205 14.98334427 47960,6950.179,96.107,574.158,569.931,0.0
49178.0,STARLINK-3086,PAYLOAD,2022-07-19 21:29:59,14.98318023,0.0003231,69.9999,44.8097,256.9699,103.1099,-8.788100000000001e-05,-1.141e-05,0.0,0 STARLINK-3086,1 49178U 21082BA  22200.89583242 -.00001141  00000-0 -87881-4 0  9994,2 49178  69.9999  44.8097 0003231 256.9699 103.1099 14.98318023 48092,6950.23,96.108,574.341,569.849,0.0
49178.0,STARLINK-3086,PAYLOAD,2022-07-20 07:06:48,14.98320076,0.0003291,70.0002,43.8001,247.1411,112.9401,-4.4755e-05,-6.27e-06,0.0,0 STARLINK-3086,1 49178U 21082BA  22201.29639258 -.00000627  00000-0 -44755-4 0  9999,2 49178  70.0002  43.8001 0003291 247.1411 112.9401 14.98320076 48157,6950.224,96.108,574.376,569.8009999999998,0.0
49178.0,STARLINK-3086,PAYLOAD,2022-07-20 19:55:52,14.98323698,0.0003134,70.0002,42.4533,255.9463,104.1347,-5.4045e-05,-7.38e-06,0.0,0 STARLINK-3086,1 49178U 21082BA  22201.83047395 -.00000738  00000-0 -54045-4 0  9990,2 49178  70.0002  42.4533 0003134 255.9463 104.1347 14.98323698 48236,6950.212,96.107,574.256,569.899,0.0
